[{"OBJECT_NAME":"STARLINK-5321","OBJECT_ID":"2023-010AK","EPOCH":"2026-03-09T23:19:06.645216","MEAN_MOTION":14.98355814,"ECCENTRICITY":0.00033983,"INCLINATION":70.0006,"RA_OF_ASC_NODE":23.6548,"ARG_OF_PERICENTER":273.9412,"MEAN_ANOMALY":86.1358,"EPHEMERIS_TYPE":0,"CLASSIFICATION_TYPE":"U","NORAD_CAT_ID":55302,"ELEMENT_SET_NO":999,"REV_AT_EPOCH":17331,"BSTAR":9.9820986e-5,"MEAN_MOTION_DOT":1.099e-5,"MEAN_MOTION_DDOT":0},{"OBJECT_NAME":"FENGYUN 1C DEB","OBJECT_ID":"1999-025BDP","EPOCH":"2026-03-09T13:06:28.874592","MEAN_MOTION":14.76824991,"ECCENTRICITY":0.02629979,"INCLINATION":98.3487,"RA_OF_ASC_NODE":187.0157,"ARG_OF_PERICENTER":325.1899,"MEAN_ANOMALY":33.2345,"EPHEMERIS_TYPE":0,"CLASSIFICATION_TYPE":"U","NORAD_CAT_ID":31021,"ELEMENT_SET_NO":999,"REV_AT_EPOCH":74713,"BSTAR":0.00051474289,"MEAN_MOTION_DOT":6.356e-5,"MEAN_MOTION_DDOT":0}]
